WORLDVIEW-1 (WV-1)      
1 32060U 07041A   26197.76466494  .00003046  00000+0  12657-3 0  9990
2 32060  97.3908 317.0939 0001676 198.8827 161.2348 15.24568766 47381
WORLDVIEW-2 (WV-2)      
1 35946U 09055A   26197.80737633  .00000031  00000+0  24629-4 0  9998
2 35946  98.4756 270.8537 0005376 125.9295 234.2391 14.37907151879909
WORLDVIEW-3 (WV-3)      
1 40115U 14048A   26197.81424376  .00000356  00000+0  47888-4 0  9990
2 40115  97.8556 272.2369 0001423 153.3342 206.7946 14.85065656646304
